[{"OBJECT_NAME":"LEMUR-1","OBJECT_ID":"2014-033AL","EPOCH":"2026-03-02T10:15:56.779200","MEAN_MOTION":14.84751934,"ECCENTRICITY":0.00498744,"INCLINATION":97.7697,"RA_OF_ASC_NODE":213.733,"ARG_OF_PERICENTER":69.2107,"MEAN_ANOMALY":291.4441,"EPHEMERIS_TYPE":0,"CLASSIFICATION_TYPE":"U","NORAD_CAT_ID":40044,"ELEMENT_SET_NO":999,"REV_AT_EPOCH":62962,"BSTAR":0.00040227153,"MEAN_MOTION_DOT":3.432e-5,"MEAN_MOTION_DDOT":0},{"OBJECT_NAME":"LEMUR-2-GREENBERG","OBJECT_ID":"2017-042N","EPOCH":"2026-03-02T10:53:44.751552","MEAN_MOTION":15.27639018,"ECCENTRICITY":0.00095767,"INCLINATION":97.376,"RA_OF_ASC_NODE":242.8653,"ARG_OF_PERICENTER":28.3785,"MEAN_ANOMALY":331.7974,"EPHEMERIS_TYPE":0,"CLASSIFICATION_TYPE":"U","NORAD_CAT_ID":42837,"ELEMENT_SET_NO":999,"REV_AT_EPOCH":47207,"BSTAR":0.00083821849,"MEAN_MOTION_DOT":0.00022647,"MEAN_MOTION_DDOT":0},{"OBJECT_NAME":"LEMUR-2-ANDIS","OBJECT_ID":"2017-042P","EPOCH":"2026-03-02T13:30:48.168864","MEAN_MOTION":15.30149495,"ECCENTRICITY":0.0009532,"INCLINATION":97.3646,"RA_OF_ASC_NODE":242.8552,"ARG_OF_PERICENTER":28.5723,"MEAN_ANOMALY":331.6038,"EPHEMERIS_TYPE":0,"CLASSIFICATION_TYPE":"U","NORAD_CAT_ID":42838,"ELEMENT_SET_NO":999,"REV_AT_EPOCH":47212,"BSTAR":0.00088316,"MEAN_MOTION_DOT":0.00025783,"MEAN_MOTION_DDOT":0},{"OBJECT_NAME":"LEMUR-2-MONSON","OBJECT_ID":"2017-042Q","EPOCH":"2026-03-02T13:43:04.659744","MEAN_MOTION":15.24695794,"ECCENTRICITY":0.0006979,"INCLINATION":97.4017,"RA_OF_ASC_NODE":243.0917,"ARG_OF_PERICENTER":17.4363,"MEAN_ANOMALY":342.7112,"EPHEMERIS_TYPE":0,"CLASSIFICATION_TYPE":"U","NORAD_CAT_ID":42839,"ELEMENT_SET_NO":999,"REV_AT_EPOCH":47190,"BSTAR":0.00075678,"MEAN_MOTION_DOT":0.00018684,"MEAN_MOTION_DDOT":0},{"OBJECT_NAME":"LEMUR-2-FURIAUS","OBJECT_ID":"2017-042R","EPOCH":"2026-03-02T13:14:44.738880","MEAN_MOTION":15.25814226,"ECCENTRICITY":0.0007686,"INCLINATION":97.3733,"RA_OF_ASC_NODE":241.1889,"ARG_OF_PERICENTER":82.2221,"MEAN_ANOMALY":277.989,"EPHEMERIS_TYPE":0,"CLASSIFICATION_TYPE":"U","NORAD_CAT_ID":42840,"ELEMENT_SET_NO":999,"REV_AT_EPOCH":47192,"BSTAR":0.0010671,"MEAN_MOTION_DOT":0.00027309,"MEAN_MOTION_DDOT":0},{"OBJECT_NAME":"LEMUR-2-PETERG","OBJECT_ID":"2017-042S","EPOCH":"2026-03-02T11:33:43.855776","MEAN_MOTION":15.29248412,"ECCENTRICITY":0.00040384,"INCLINATION":97.3964,"RA_OF_ASC_NODE":246.6954,"ARG_OF_PERICENTER":6.9874,"MEAN_ANOMALY":353.1422,"EPHEMERIS_TYPE":0,"CLASSIFICATION_TYPE":"U","NORAD_CAT_ID":42841,"ELEMENT_SET_NO":999,"REV_AT_EPOCH":47210,"BSTAR":0.00089050002,"MEAN_MOTION_DOT":0.00025257,"MEAN_MOTION_DDOT":0},{"OBJECT_NAME":"LEMUR-2-DEMBITZ","OBJECT_ID":"2017-042T","EPOCH":"2026-03-02T11:05:32.521344","MEAN_MOTION":15.26604504,"ECCENTRICITY":0.00072837,"INCLINATION":97.3791,"RA_OF_ASC_NODE":243.9922,"ARG_OF_PERICENTER":41.0871,"MEAN_ANOMALY":319.0915,"EPHEMERIS_TYPE":0,"CLASSIFICATION_TYPE":"U","NORAD_CAT_ID":42842,"ELEMENT_SET_NO":999,"REV_AT_EPOCH":47204,"BSTAR":0.00083964819,"MEAN_MOTION_DOT":0.00021972,"MEAN_MOTION_DDOT":0},{"OBJECT_NAME":"LEMUR-2-ZACHARY","OBJECT_ID":"2017-042W","EPOCH":"2026-03-02T18:32:04.043328","MEAN_MOTION":15.41309906,"ECCENTRICITY":0.0003753,"INCLINATION":97.3649,"RA_OF_ASC_NODE":251.8028,"ARG_OF_PERICENTER":43.5141,"MEAN_ANOMALY":316.6401,"EPHEMERIS_TYPE":0,"CLASSIFICATION_TYPE":"U","NORAD_CAT_ID":42845,"ELEMENT_SET_NO":999,"REV_AT_EPOCH":47276,"BSTAR":0.0011132,"MEAN_MOTION_DOT":0.00046517,"MEAN_MOTION_DDOT":0},{"OBJECT_NAME":"LEMUR-2-JIN-LUEN","OBJECT_ID":"2018-014C","EPOCH":"2026-03-02T17:57:31.065408","MEAN_MOTION":15.75656413,"ECCENTRICITY":0.0001708,"INCLINATION":97.5453,"RA_OF_ASC_NODE":351.3973,"ARG_OF_PERICENTER":93.9946,"MEAN_ANOMALY":266.1514,"EPHEMERIS_TYPE":0,"CLASSIFICATION_TYPE":"U","NORAD_CAT_ID":43182,"ELEMENT_SET_NO":999,"REV_AT_EPOCH":44437,"BSTAR":0.0014377,"MEAN_MOTION_DOT":0.0022455,"MEAN_MOTION_DDOT":0},{"OBJECT_NAME":"LEMUR-2-KADI","OBJECT_ID":"2018-014E","EPOCH":"2026-03-02T18:08:53.284992","MEAN_MOTION":15.62593856,"ECCENTRICITY":0.0001247,"INCLINATION":97.4722,"RA_OF_ASC_NODE":346.0306,"ARG_OF_PERICENTER":42.668,"MEAN_ANOMALY":317.4675,"EPHEMERIS_TYPE":0,"CLASSIFICATION_TYPE":"U","NORAD_CAT_ID":43184,"ELEMENT_SET_NO":999,"REV_AT_EPOCH":44430,"BSTAR":0.0010984,"MEAN_MOTION_DOT":0.00098912,"MEAN_MOTION_DDOT":0},{"OBJECT_NAME":"LEMUR-2-AMANDA-SVANTE","OBJECT_ID":"2021-034B","EPOCH":"2026-03-02T18:29:09.353760","MEAN_MOTION":15.27961909,"ECCENTRICITY":0.0002039,"INCLINATION":97.585,"RA_OF_ASC_NODE":137.7305,"ARG_OF_PERICENTER":228.398,"MEAN_ANOMALY":131.7084,"EPHEMERIS_TYPE":0,"CLASSIFICATION_TYPE":"U","NORAD_CAT_ID":48269,"ELEMENT_SET_NO":999,"REV_AT_EPOCH":26477,"BSTAR":0.0010752,"MEAN_MOTION_DOT":0.00029345,"MEAN_MOTION_DDOT":0},{"OBJECT_NAME":"LEMUR-2-SPECIAL-K","OBJECT_ID":"2021-034F","EPOCH":"2026-03-02T18:50:51.251424","MEAN_MOTION":15.44178488,"ECCENTRICITY":0.0001366,"INCLINATION":97.5733,"RA_OF_ASC_NODE":142.8051,"ARG_OF_PERICENTER":222.4012,"MEAN_ANOMALY":137.713,"EPHEMERIS_TYPE":0,"CLASSIFICATION_TYPE":"U","NORAD_CAT_ID":48273,"ELEMENT_SET_NO":999,"REV_AT_EPOCH":26517,"BSTAR":0.0014973,"MEAN_MOTION_DOT":0.00069085,"MEAN_MOTION_DDOT":0},{"OBJECT_NAME":"LEMUR-2-EMBRIONOVIS","OBJECT_ID":"2023-084AQ","EPOCH":"2026-03-02T19:47:07.151712","MEAN_MOTION":15.34496973,"ECCENTRICITY":0.0008674,"INCLINATION":97.6115,"RA_OF_ASC_NODE":202.2864,"ARG_OF_PERICENTER":339.3145,"MEAN_ANOMALY":20.7745,"EPHEMERIS_TYPE":0,"CLASSIFICATION_TYPE":"U","NORAD_CAT_ID":56970,"ELEMENT_SET_NO":999,"REV_AT_EPOCH":15135,"BSTAR":0.00028475,"MEAN_MOTION_DOT":9.443e-5,"MEAN_MOTION_DDOT":0},{"OBJECT_NAME":"LEMUR-2-MANO","OBJECT_ID":"2023-100E","EPOCH":"2026-03-02T15:26:50.935776","MEAN_MOTION":15.58599458,"ECCENTRICITY":0.0002724,"INCLINATION":99.4556,"RA_OF_ASC_NODE":81.8542,"ARG_OF_PERICENTER":60.2253,"MEAN_ANOMALY":299.9267,"EPHEMERIS_TYPE":0,"CLASSIFICATION_TYPE":"U","NORAD_CAT_ID":57390,"ELEMENT_SET_NO":999,"REV_AT_EPOCH":14538,"BSTAR":0.0017343,"MEAN_MOTION_DOT":0.00134841,"MEAN_MOTION_DDOT":0},{"OBJECT_NAME":"LEMUR-2-DEVERILL-M-T","OBJECT_ID":"2023-100F","EPOCH":"2026-03-02T14:35:29.040864","MEAN_MOTION":15.34255864,"ECCENTRICITY":0.000885,"INCLINATION":99.4574,"RA_OF_ASC_NODE":70.0631,"ARG_OF_PERICENTER":49.3834,"MEAN_ANOMALY":310.817,"EPHEMERIS_TYPE":0,"CLASSIFICATION_TYPE":"U","NORAD_CAT_ID":57391,"ELEMENT_SET_NO":999,"REV_AT_EPOCH":14487,"BSTAR":0.00089046,"MEAN_MOTION_DOT":0.00029543,"MEAN_MOTION_DDOT":0},{"OBJECT_NAME":"LEMUR-2-BASS","OBJECT_ID":"2023-174D","EPOCH":"2026-03-02T17:46:29.712288","MEAN_MOTION":15.39453855,"ECCENTRICITY":0.0007873,"INCLINATION":97.3899,"RA_OF_ASC_NODE":145.2404,"ARG_OF_PERICENTER":185.881,"MEAN_ANOMALY":174.2344,"EPHEMERIS_TYPE":0,"CLASSIFICATION_TYPE":"U","NORAD_CAT_ID":58259,"ELEMENT_SET_NO":999,"REV_AT_EPOCH":12896,"BSTAR":0.00050999,"MEAN_MOTION_DOT":0.0001995,"MEAN_MOTION_DDOT":0}]
