LEMUR-1                 
1 40044U 14033AL  26061.42774050  .00003432  00000+0  40227-3 0  9996
2 40044  97.7697 213.7330 0049874  69.2107 291.4441 14.84751934629621
LEMUR-2-GREENBERG       
1 42837U 17042N   26061.45399018  .00022647  00000+0  83822-3 0  9998
2 42837  97.3760 242.8653 0009576  28.3785 331.7974 15.27639018472074
LEMUR-2-ANDIS           
1 42838U 17042P   26061.56305751  .00025783  00000+0  88316-3 0  9999
2 42838  97.3646 242.8552 0009532  28.5723 331.6038 15.30149495472127
LEMUR-2-MONSON          
1 42839U 17042Q   26061.57158171  .00018684  00000+0  75678-3 0  9992
2 42839  97.4017 243.0917 0006979  17.4363 342.7112 15.24695794471900
LEMUR-2-FURIAUS         
1 42840U 17042R   26061.55190670  .00027309  00000+0  10671-2 0  9997
2 42840  97.3733 241.1889 0007686  82.2221 277.9890 15.25814226471920
LEMUR-2-PETERG          
1 42841U 17042S   26061.48175759  .00025257  00000+0  89050-3 0  9999
2 42841  97.3964 246.6954 0004038   6.9874 353.1422 15.29248412472106
LEMUR-2-DEMBITZ         
1 42842U 17042T   26061.46218196  .00021972  00000+0  83965-3 0  9990
2 42842  97.3791 243.9922 0007283  41.0871 319.0915 15.26604504472048
LEMUR-2-ZACHARY         
1 42845U 17042W   26061.77226902  .00046517  00000+0  11132-2 0  9999
2 42845  97.3649 251.8028 0003753  43.5141 316.6401 15.41309906472760
LEMUR-2-JIN-LUEN        
1 43182U 18014C   26061.74827622  .00224550  00000+0  14377-2 0  9996
2 43182  97.5453 351.3973 0001708  93.9946 266.1514 15.75656413444370
LEMUR-2-KADI            
1 43184U 18014E   26061.75617228  .00098912  00000+0  10984-2 0  9999
2 43184  97.4722 346.0306 0001247  42.6680 317.4675 15.62593856444303
LEMUR-2-AMANDA-SVANTE   
1 48269U 21034B   26061.77024715  .00029345  00000+0  10752-2 0  9996
2 48269  97.5850 137.7305 0002039 228.3980 131.7084 15.27961909264776
LEMUR-2-SPECIAL-K       
1 48273U 21034F   26061.78531541  .00069085  00000+0  14973-2 0  9996
2 48273  97.5733 142.8051 0001366 222.4012 137.7130 15.44178488265173
LEMUR-2-EMBRIONOVIS     
1 56970U 23084AQ  26061.82438833  .00009443  00000+0  28475-3 0  9996
2 56970  97.6115 202.2864 0008674 339.3145  20.7745 15.34496973151356
LEMUR-2-MANO            
1 57390U 23100E   26061.64364509  .00134841  00000+0  17343-2 0  9992
2 57390  99.4556  81.8542 0002724  60.2253 299.9267 15.58599458145389
LEMUR-2-DEVERILL-M-T    
1 57391U 23100F   26061.60797501  .00029543  00000+0  89046-3 0  9993
2 57391  99.4574  70.0631 0008850  49.3834 310.8170 15.34255864144871
LEMUR-2-BASS            
1 58259U 23174D   26061.74062167  .00019950  00000+0  50999-3 0  9992
2 58259  97.3899 145.2404 0007873 185.8810 174.2344 15.39453855128961
